NORAD_CAT_ID,OBJECT_NAME,OBJECT_TYPE,EPOCH,MEAN_MOTION,ECCENTRICITY,INCLINATION,RA_OF_ASC_NODE,ARG_OF_PERICENTER,MEAN_ANOMALY,BSTAR,MEAN_MOTION_DOT,MEAN_MOTION_DDOT,TLE_LINE0,TLE_LINE1,TLE_LINE2,SEMIMAJOR_AXIS,PERIOD,APOGEE,PERIGEE,DECAYED
53257.0,STARLINK-4144,PAYLOAD,2023-12-07 05:59:48,15.08835981,0.000175,53.2193,290.6836,92.3975,267.7218,-1.8028e-05,-5.75e-06,0.0,0 STARLINK-4144,1 53257U 22086R   23341.24986625 -.00000575  00000-0 -18028-4 0  9997,2 53257  53.2193 290.6836 0001750  92.3975 267.7218 15.08835981 76755,6917.893,95.438,540.968,538.547,0.0
53257.0,STARLINK-4144,PAYLOAD,2023-12-08 04:15:12,15.08840757,0.0001676,53.2185,286.5202,91.9192,268.1992,2.2596e-05,7.2e-07,0.0,0 STARLINK-4144,1 53257U 22086R   23342.17722342  .00000072  00000-0  22596-4 0  9999,2 53257  53.2185 286.5202 0001676  91.9192 268.1992 15.08840757 76717,6917.878,95.438,540.903,538.584,0.0
53257.0,STARLINK-4144,PAYLOAD,2023-12-08 20:09:03,15.08833993,0.0001589,53.219,283.5473,90.6344,269.483,0.00013375,1.841e-05,0.0,0 STARLINK-4144,1 53257U 22086R   23342.83962562  .00001841  00000-0  13375-3 0  9991,2 53257  53.2190 283.5473 0001589  90.6344 269.4830 15.08833993 76997,6917.899,95.438,540.863,538.664,0.0
53257.0,STARLINK-4144,PAYLOAD,2023-12-09 02:30:35,15.08842377,0.0001647,53.219,282.3586,86.225,273.893,0.000137,1.893e-05,0.0,0 STARLINK-4144,1 53257U 22086R   23343.10458083  .00001893  00000-0  13700-3 0  9999,2 53257  53.2190 282.3586 0001647  86.2250 273.8930 15.08842377 77033,6917.873,95.437,540.877,538.599,0.0
53257.0,STARLINK-4144,PAYLOAD,2023-12-09 19:59:50,15.08844341,0.000175,53.2186,279.0914,77.4953,282.6235,3.9177e-05,3.36e-06,0.0,0 STARLINK-4144,1 53257U 22086R   23343.83322340  .00000336  00000-0  39177-4 0  9993,2 53257  53.2186 279.0914 0001750  77.4953 282.6235 15.08844341 76963,6917.867,95.437,540.943,538.521,0.0
53257.0,STARLINK-4144,PAYLOAD,2023-12-10 05:32:09,15.08844747,0.0001765,53.2184,277.3071,77.2898,282.8291,3.9235e-05,3.36e-06,0.0,0 STARLINK-4144,1 53257U 22086R   23344.23066204  .00000336  00000-0  39235-4 0  9997,2 53257  53.2184 277.3071 0001765  77.2898 282.8291 15.08844747 77200,6917.866,95.437,540.952,538.51,0.0
53257.0,STARLINK-4144,PAYLOAD,2023-12-11 02:12:09,15.08842724,0.0001719,53.2179,273.4382,100.7029,259.4156,8.6512e-06,-1.5e-06,0.0,0 STARLINK-4144,1 53257U 22086R   23345.09178091 -.00000150  00000-0  86512-5 0  9996,2 53257  53.2179 273.4382 0001719 100.7029 259.4156 15.08842724 77150,6917.872,95.437,540.926,538.548,0.0
53257.0,STARLINK-4144,PAYLOAD,2023-12-11 22:52:11,15.08836354,0.0001747,53.2182,269.57,102.2235,257.8952,-1.0053e-05,-4.48e-06,0.0,0 STARLINK-4144,1 53257U 22086R   23345.95290555 -.00000448  00000-0 -10053-4 0  9998,2 53257  53.2182 269.5700 0001747 102.2235 257.8952 15.08836354 77463,6917.892,95.438,540.965,538.548,0.0
53257.0,STARLINK-4144,PAYLOAD,2023-12-12 02:02:57,15.08837337,0.0001637,53.218,268.9761,91.264,268.854,-7.6743e-06,-4.1e-06,0.0,0 STARLINK-4144,1 53257U 22086R   23346.08538557 -.00000410  00000-0 -76743-5 0  9998,2 53257  53.2180 268.9761 0001637  91.2640 268.8540 15.08837337 77306,6917.889,95.438,540.886,538.621,0.0
53257.0,STARLINK-4144,PAYLOAD,2023-12-12 22:42:58,15.08838973,0.0001582,53.2177,265.1109,91.782,268.3354,2.7756e-05,1.54e-06,0.0,0 STARLINK-4144,1 53257U 22086R   23346.94650504  .00000154  00000-0  27756-4 0  9992,2 53257  53.2177 265.1109 0001582  91.7820 268.3354 15.08838973 77610,6917.884,95.438,540.843,538.654,0.0
53257.0,STARLINK-4144,PAYLOAD,2023-12-13 01:53:43,15.0884301,0.0001588,53.2177,264.516,92.9099,267.2074,6.0723e-05,6.79e-06,0.0,0 STARLINK-4144,1 53257U 22086R   23347.07898141  .00000679  00000-0  60723-4 0  9991,2 53257  53.2177 264.5160 0001588  92.9099 267.2074 15.08843010 77454,6917.871,95.437,540.835,538.638,0.0
53257.0,STARLINK-4144,PAYLOAD,2023-12-13 22:33:45,15.08837003,0.0001552,53.2175,260.6507,93.6034,266.5136,3.6164e-05,2.88e-06,0.0,0 STARLINK-4144,1 53257U 22086R   23347.94010647  .00000288  00000-0  36164-4 0  9992,2 53257  53.2175 260.6507 0001552  93.6034 266.5136 15.08837003 77762,6917.89,95.438,540.828,538.681,0.0
53257.0,STARLINK-4144,PAYLOAD,2023-12-14 01:44:31,15.08840497,0.0001555,53.2175,260.0563,89.6114,270.5056,6.4236e-05,7.34e-06,0.0,0 STARLINK-4144,1 53257U 22086R   23348.07258383  .00000734  00000-0  64236-4 0  9995,2 53257  53.2175 260.0563 0001555  89.6114 270.5056 15.08840497 77605,6917.879,95.438,540.82,538.668,0.0
53257.0,STARLINK-4144,PAYLOAD,2023-12-14 22:24:32,15.08841171,0.0001499,53.2173,256.1918,88.8386,271.2778,5.6166e-06,-1.99e-06,0.0,0 STARLINK-4144,1 53257U 22086R   23348.93370618 -.00000199  00000-0  56166-5 0  9996,2 53257  53.2173 256.1918 0001499  88.8386 271.2778 15.08841171 77915,6917.877,95.437,540.779,538.705,0.0
53257.0,STARLINK-4144,PAYLOAD,2023-12-15 01:35:18,15.08834789,0.0001571,53.2178,255.5967,82.64,277.4771,0.00018928,2.725e-05,0.0,0 STARLINK-4144,1 53257U 22086R   23349.06618439  .00002725  00000-0  18928-3 0  9995,2 53257  53.2178 255.5967 0001571  82.6400 277.4771 15.08834789 77937,6917.896,95.438,540.848,538.675,0.0
53257.0,STARLINK-4144,PAYLOAD,2023-12-15 22:15:19,15.08834906,0.0001569,53.2173,251.7327,88.2972,271.82,-2.3941e-05,-6.69e-06,0.0,0 STARLINK-4144,1 53257U 22086R   23349.92731306 -.00000669  00000-0 -23941-4 0  9998,2 53257  53.2173 251.7327 0001569  88.2972 271.8200 15.08834906 78064,6917.896,95.438,540.846,538.676,0.0
53257.0,STARLINK-4144,PAYLOAD,2023-12-15 23:50:42,15.08834946,0.0001494,53.2176,251.4349,96.3489,263.7674,-2.4811e-05,-6.83e-06,0.0,0 STARLINK-4144,1 53257U 22086R   23349.99355261 -.00000683  00000-0 -24811-4 0  9990,2 53257  53.2176 251.4349 0001494  96.3489 263.7674 15.08834946 77897,6917.896,95.438,540.794,538.727,0.0
53257.0,STARLINK-4144,PAYLOAD,2023-12-16 22:06:06,15.08846936,0.0001591,53.2191,247.2647,105.9647,254.1521,1.5999e-06,-2.63e-06,0.0,0 STARLINK-4144,1 53257U 22086R   23350.92090424 -.00000263  00000-0  15999-5 0  9993,2 53257  53.2191 247.2647 0001591 105.9647 254.1521 15.08846936 78213,6917.859,95.437,540.825,538.624,0.0
53257.0,STARLINK-4144,PAYLOAD,2023-12-16 23:41:29,15.08848861,0.0001577,53.2182,246.9705,98.833,261.2841,3.5497e-05,2.77e-06,0.0,0 STARLINK-4144,1 53257U 22086R   23350.98714241  .00000277  00000-0  35497-4 0  9997,2 53257  53.2182 246.9705 0001577  98.8330 261.2841 15.08848861 78041,6917.853,95.437,540.809,538.627,0.0
53257.0,STARLINK-4144,PAYLOAD,2023-12-17 21:56:52,15.08845697,0.0001443,53.2175,242.811,105.0693,255.0459,8.7877e-05,1.111e-05,0.0,0 STARLINK-4144,1 53257U 22086R   23351.91450166  .00001111  00000-0  87877-4 0  9991,2 53257  53.2175 242.8110 0001443 105.0693 255.0459 15.08845697 78368,6917.863,95.437,540.726,538.73,0.0
53257.0,STARLINK-4144,PAYLOAD,2023-12-17 23:32:15,15.08846825,0.0001441,53.2177,242.5099,100.2628,259.8527,9.6134e-05,1.243e-05,0.0,0 STARLINK-4144,1 53257U 22086R   23351.98074022  .00001243  00000-0  96134-4 0  9993,2 53257  53.2177 242.5099 0001441 100.2628 259.8527 15.08846825 78379,6917.86,95.437,540.721,538.728,0.0
53257.0,STARLINK-4144,PAYLOAD,2023-12-18 20:12:17,15.08844197,0.00018,53.2176,238.648,126.2456,233.8703,-0.00011459,-2.112e-05,0.0,0 STARLINK-4144,1 53257U 22086R   23352.84186728 -.00002112  00000-0 -11459-3 0  9990,2 53257  53.2176 238.6480 0001800 126.2456 233.8703 15.08844197 78327,6917.868,95.437,540.978,538.487,0.0
53257.0,STARLINK-4144,PAYLOAD,2023-12-18 21:47:40,15.0883801,0.0001515,53.2171,238.351,111.3338,248.7816,-4.1462e-05,-9.48e-06,0.0,0 STARLINK-4144,1 53257U 22086R   23352.90811021 -.00000948  00000-0 -41462-4 0  9991,2 53257  53.2171 238.3510 0001515 111.3338 248.7816 15.08838010 78518,6917.886,95.438,540.8,538.703,0.0
53257.0,STARLINK-4144,PAYLOAD,2023-12-18 23:23:03,15.08838441,0.0001485,53.2172,238.0536,105.3793,254.7363,-3.8265e-05,-8.97e-06,0.0,0 STARLINK-4144,1 53257U 22086R   23352.97435018 -.00000897  00000-0 -38265-4 0  9996,2 53257  53.2172 238.0536 0001485 105.3793 254.7363 15.08838441 78521,6917.885,95.438,540.777,538.723,0.0
53257.0,STARLINK-4144,PAYLOAD,2023-12-19 21:38:27,15.08840827,0.000173,53.2168,233.8925,123.2062,236.9096,-4.4919e-05,-1.003e-05,0.0,0 STARLINK-4144,1 53257U 22086R   23353.90170850 -.00001003  00000-0 -44919-4 0  9993,2 53257  53.2168 233.8925 0001730 123.2062 236.9096 15.08840827 78483,6917.878,95.438,540.94,538.546,0.0
53257.0,STARLINK-4144,PAYLOAD,2023-12-20 21:29:15,15.08835334,0.0001262,53.2165,229.4285,94.1955,265.9181,7.6212e-05,9.25e-06,0.0,0 STARLINK-4144,1 53257U 22086R   23354.89531342  .00000925  00000-0  76212-4 0  9990,2 53257  53.2165 229.4285 0001262  94.1955 265.9181 15.08835334 78818,6917.895,95.438,540.633,538.887,0.0
53257.0,STARLINK-4144,PAYLOAD,2023-12-21 21:20:02,15.08842068,0.0001253,53.2159,224.968,94.2385,265.875,7.1336e-06,-1.74e-06,0.0,0 STARLINK-4144,1 53257U 22086R   23355.88891494 -.00000174  00000-0  71336-5 0  9997,2 53257  53.2159 224.9680 0001253  94.2385 265.8750 15.08842068 78967,6917.874,95.437,540.606,538.872,0.0
53257.0,STARLINK-4144,PAYLOAD,2023-12-21 22:55:25,15.08805378,0.0001428,53.2161,224.6698,86.9543,273.1612,0.00049747,7.631e-05,0.0,0 STARLINK-4144,1 53257U 22086R   23355.95516199  .00007631  00000-0  49747-3 0  9994,2 53257  53.2161 224.6698 0001428  86.9543 273.1612 15.08805378 78797,6917.986,95.44,540.839,538.863,0.0
53257.0,STARLINK-4144,PAYLOAD,2023-12-22 19:35:26,15.08839844,0.0001312,53.2162,220.8058,81.6701,278.4439,8.321e-05,1.037e-05,0.0,0 STARLINK-4144,1 53257U 22086R   23356.81627541  .00001037  00000-0  83210-4 0  9992,2 53257  53.2162 220.8058 0001312  81.6701 278.4439 15.08839844 78921,6917.881,95.438,540.653,538.838,0.0
53257.0,STARLINK-4144,PAYLOAD,2023-12-22 21:10:49,15.08841178,0.0001341,53.216,220.5085,81.347,278.7674,9.2717e-05,1.188e-05,0.0,0 STARLINK-4144,1 53257U 22086R   23356.88251426  .00001188  00000-0  92717-4 0  9993,2 53257  53.2160 220.5085 0001341  81.3470 278.7674 15.08841178 79117,6917.877,95.437,540.669,538.814,0.0
